[{"OBJECT_NAME":"OBJECT D","OBJECT_ID":"2025-313D","EPOCH":"2026-03-09T21:56:57.808608","MEAN_MOTION":14.89111186,"ECCENTRICITY":0.01485836,"INCLINATION":97.5765,"RA_OF_ASC_NODE":143.4472,"ARG_OF_PERICENTER":297.1144,"MEAN_ANOMALY":61.4984,"EPHEMERIS_TYPE":0,"CLASSIFICATION_TYPE":"U","NORAD_CAT_ID":67251,"ELEMENT_SET_NO":999,"REV_AT_EPOCH":1062,"BSTAR":0.00021863983,"MEAN_MOTION_DOT":2.471e-5,"MEAN_MOTION_DDOT":0},{"OBJECT_NAME":"OKEAN-2","OBJECT_ID":"1990-018A","EPOCH":"2026-03-09T23:36:10.183680","MEAN_MOTION":15.15649196,"ECCENTRICITY":0.00049727,"INCLINATION":82.5017,"RA_OF_ASC_NODE":331.5686,"ARG_OF_PERICENTER":303.4328,"MEAN_ANOMALY":67.9927,"EPHEMERIS_TYPE":0,"CLASSIFICATION_TYPE":"U","NORAD_CAT_ID":20510,"ELEMENT_SET_NO":999,"REV_AT_EPOCH":93903,"BSTAR":0.00028442133,"MEAN_MOTION_DOT":5.437e-5,"MEAN_MOTION_DDOT":0}]
